QIANFAN-25              
1 61558U 24185G   25258.25082112  .00000487  00000+0  29015-3 0  9996
2 61558  88.9736  88.2113 0007621 205.7555 154.3249 14.05788231 57072
QIANFAN-26              
1 61559U 24185H   25258.21856021  .00000269  00000+0  25622-3 0  9999
2 61559  88.9745  89.3129 0003774 286.1847  73.8904 13.77739469 56488
QIANFAN-27              
1 61560U 24185J   25258.26999525  .00000603  00000+0  24107-3 0  9992
2 61560  88.9740  87.3237 0006794 205.7239 154.3618 14.27163539 57540
QIANFAN-28              
1 61561U 24185K   25258.22210321  .00000935  00000+0  37323-3 0  9991
2 61561  88.9756  87.3260 0005893 204.7920 155.2992 14.27753651 57544
QIANFAN-29              
1 61562U 24185L   25258.23263099  .00000190  00000+0  27661-3 0  9990
2 61562  88.9722  90.4644 0008784 315.6349  44.4097 13.50965588 55843
QIANFAN-30              
1 61563U 24185M   25258.21462643  .00000177  00000+0  26046-3 0  9996
2 61563  88.9742  89.9576 0005923 299.8446  60.2116 13.49943405 56128
QIANFAN-31              
1 61564U 24185N   25258.26040030  .00000191  00000+0  24866-3 0  9998
2 61564  88.9726  89.8950 0005463 297.1026  62.9571 13.57915763 56152
QIANFAN-32              
1 61565U 24185P   25258.23214969  .00000177  00000+0  25643-3 0  9998
2 61565  88.9785  90.0633 0008299 328.0400  32.0247 13.50695717 56098
